{"type": "FeatureCollection", "features": [ {"type": "Feature", "properties": {"norad_id": 66584, "name": "STARLINK-35939", "group": "last-30-days", "lat": -42.92980669255138, "lon": -43.01185514047074, "alt_km": 406.6787020878264, "timestamp": "2025-12-24T18:55:54.774210+00:00", "meta": {"OBJECT_NAME": "STARLINK-35939", "OBJECT_ID": "2025-268AD", "EPOCH": "2025-12-24T08:00:03.000384", "MEAN_MOTION": 15.56366835, "ECCENTRICITY": 0.00010348, "INCLINATION": 43.0001, "RA_OF_ASC_NODE": 53.0529, "ARG_OF_PERICENTER": 263.0768, "MEAN_ANOMALY": 331.2214, "EPHEMERIS_TYPE": 0, "CLASSIFICATION_TYPE": "U", "NORAD_CAT_ID": 66584, "ELEMENT_SET_NO": 999, "REV_AT_EPOCH": 610, "BSTAR": -0.033338428, "MEAN_MOTION_DOT": -0.02142761, "MEAN_MOTION_DDOT": 0}, "tle": {"line1": "1 66584U 25268AD  25358.33336806 -.02142761  00000+0 -33338-1 0  9992", "line2": "2 66584  43.0001  53.0529 0001034 263.0768 331.2214 15.56366835  6104"}}, "geometry": {"type": "Point", "coordinates": [-43.01185514047074, -42.92980669255138]}}, {"type": "Feature", "properties": {"norad_id": 66585, "name": "STARLINK-35963", "group": "last-30-days", "lat": 2.534586570958244, "lon": -132.1298269589265, "alt_km": 442.95704874020794, "timestamp": "2025-12-24T18:55:54.774220+00:00", "meta": {"OBJECT_NAME": "STARLINK-35963", "OBJECT_ID": "2025-268AE", "EPOCH": "2025-12-24T08:00:03.000384", "MEAN_MOTION": 15.43074352, "ECCENTRICITY": 0.0001007, "INCLINATION": 42.9996, "RA_OF_ASC_NODE": 53.2234, "ARG_OF_PERICENTER": 283.7969, "MEAN_ANOMALY": 241.0122, "EPHEMERIS_TYPE": 0, "CLASSIFICATION_TYPE": "U", "NORAD_CAT_ID": 66585, "ELEMENT_SET_NO": 999, "REV_AT_EPOCH": 610, "BSTAR": -0.052168917, "MEAN_MOTION_DOT": -0.02090857, "MEAN_MOTION_DDOT": 0}, "tle": {"line1": "1 66585U 25268AE  25358.33336806 -.02090857  00000+0 -52169-1 0  9994", "line2": "2 66585  42.9996  53.2234 0001007 283.7969 241.0122 15.43074352  6105"}}, "geometry": {"type": "Point", "coordinates": [-132.1298269589265, 2.534586570958244]}}, {"type": "Feature", "properties": {"norad_id": 66586, "name": "TJS-21", "group": "last-30-days", "lat": 52.816172627247504, "lon": -157.3097679486893, "alt_km": 30047.64463768028, "timestamp": "2025-12-24T18:55:54.774234+00:00", "meta": {"OBJECT_NAME": "TJS-21", "OBJECT_ID": "2025-269A", "EPOCH": "2025-12-18T16:58:10.473888", "MEAN_MOTION": 2.00580748, "ECCENTRICITY": 0.6806869, "INCLINATION": 63.2733, "RA_OF_ASC_NODE": 161.7218, "ARG_OF_PERICENTER": 269.7428, "MEAN_ANOMALY": 18.6663, "EPHEMERIS_TYPE": 0, "CLASSIFICATION_TYPE": "U", "NORAD_CAT_ID": 66586, "ELEMENT_SET_NO": 999, "REV_AT_EPOCH": 55, "BSTAR": -0.059507049, "MEAN_MOTION_DOT": 1.084e-05, "MEAN_MOTION_DDOT": 0}, "tle": {"line1": "1 66586U 25269A   25352.70706567  .00001084  00000+0 -59507-1 0  9990", "line2": "2 66586  63.2733 161.7218 6806869 269.7428  18.6663  2.00580748   558"}}, "geometry": {"type": "Point", "coordinates": [-157.3097679486893, 52.816172627247504]}}, {"type": "Feature", "properties": {"norad_id": 66588, "name": "STARLINK-36076", "group": "last-30-days", "lat": -24.80157526409163, "lon": 93.6218327989422, "alt_km": 445.7756501194999, "timestamp": "2025-12-24T18:55:54.774249+00:00", "meta": {"OBJECT_NAME": "STARLINK-36076", "OBJECT_ID": "2025-270A", "EPOCH": "2025-12-24T01:58:54.246720", "MEAN_MOTION": 15.40714399, "ECCENTRICITY": 7.095e-05, "INCLINATION": 42.9988, "RA_OF_ASC_NODE": 127.4229, "ARG_OF_PERICENTER": 291.7125, "MEAN_ANOMALY": 68.3656, "EPHEMERIS_TYPE": 0, "CLASSIFICATION_TYPE": "U", "NORAD_CAT_ID": 66588, "ELEMENT_SET_NO": 999, "REV_AT_EPOCH": 609, "BSTAR": 0.00077438546, "MEAN_MOTION_DOT": 0.00032196, "MEAN_MOTION_DDOT": 0}, "tle": {"line1": "1 66588U 25270A   25358.08257230  .00032196  00000+0  77439-3 0  9992", "line2": "2 66588  42.9988 127.4229 0000709 291.7125  68.3656 15.40714399  6097"}}, "geometry": {"type": "Point", "coordinates": [93.6218327989422, -24.80157526409163]}}, {"type": "Feature", "properties": {"norad_id": 66589, "name": "STARLINK-35447", "group": "last-30-days", "lat": 36.88986052402308, "lon": 176.76259714639505, "alt_km": 438.574558735384, "timestamp": "2025-12-24T18:55:54.774259+00:00", "meta": {"OBJECT_NAME": "STARLINK-35447", "OBJECT_ID": "2025-270B", "EPOCH": "2025-12-24T01:33:05.346144", "MEAN_MOTION": 15.40727531, "ECCENTRICITY": 0.00012702, "INCLINATION": 43.0005, "RA_OF_ASC_NODE": 127.2866, "ARG_OF_PERICENTER": 264.1464, "MEAN_ANOMALY": 95.9248, "EPHEMERIS_TYPE": 0, "CLASSIFICATION_TYPE": "U", "NORAD_CAT_ID": 66589, "ELEMENT_SET_NO": 999, "REV_AT_EPOCH": 620, "BSTAR": 0.0015340346, "MEAN_MOTION_DOT": 0.00064378, "MEAN_MOTION_DDOT": 0}, "tle": {"line1": "1 66589U 25270B   25358.06464521  .00064378  00000+0  15340-2 0  9993", "line2": "2 66589  43.0005 127.2866 0001270 264.1464  95.9248 15.40727531  6207"}}, "geometry": {"type": "Point", "coordinates": [176.76259714639505, 36.88986052402308]}}, {"type": "Feature", "properties": {"norad_id": 66590, "name": "STARLINK-35429", "group": "last-30-days", "lat": 20.476315190405554, "lon": -80.72158511722832, "alt_km": 441.15710023371594, "timestamp": "2025-12-24T18:55:54.774269+00:00", "meta": {"OBJECT_NAME": "STARLINK-35429", "OBJECT_ID": "2025-270C", "EPOCH": "2025-12-23T18:57:05.300352", "MEAN_MOTION": 15.40759913, "ECCENTRICITY": 0.00021935, "INCLINATION": 43.0027, "RA_OF_ASC_NODE": 128.6594, "ARG_OF_PERICENTER": 269.5993, "MEAN_ANOMALY": 90.4612, "EPHEMERIS_TYPE": 0, "CLASSIFICATION_TYPE": "U", "NORAD_CAT_ID": 66590, "ELEMENT_SET_NO": 999, "REV_AT_EPOCH": 616, "BSTAR": 0.0014864851, "MEAN_MOTION_DOT": 0.00062426, "MEAN_MOTION_DDOT": 0}, "tle": {"line1": "1 66590U 25270C   25357.78964468  .00062426  00000+0  14865-2 0  9991", "line2": "2 66590  43.0027 128.6594 0002193 269.5993  90.4612 15.40759913  6166"}}, "geometry": {"type": "Point", "coordinates": [-80.72158511722832, 20.476315190405554]}}, {"type": "Feature", "properties": {"norad_id": 66591, "name": "STARLINK-36058", "group": "last-30-days", "lat": -34.288248391829136, "lon": -10.2826971597721, "alt_km": 446.3314983371956, "timestamp": "2025-12-24T18:55:54.774280+00:00", "meta": {"OBJECT_NAME": "STARLINK-36058", "OBJECT_ID": "2025-270D", "EPOCH": "2025-12-24T00:00:00.998784", "MEAN_MOTION": 15.40684723, "ECCENTRICITY": 0.0001443, "INCLINATION": 43.0007, "RA_OF_ASC_NODE": 127.2349, "ARG_OF_PERICENTER": 277.3057, "MEAN_ANOMALY": 258.0125, "EPHEMERIS_TYPE": 0, "CLASSIFICATION_TYPE": "U", "NORAD_CAT_ID": 66591, "ELEMENT_SET_NO": 999, "REV_AT_EPOCH": 599, "BSTAR": 0.00024874, "MEAN_MOTION_DOT": 0.00010095, "MEAN_MOTION_DDOT": 0}, "tle": {"line1": "1 66591U 25270D   25358.00001156  .00010095  00000+0  24874-3 0  9991", "line2": "2 66591  43.0007 127.2349 0001443 277.3057 258.0125 15.40684723  5990"}}, "geometry": {"type": "Point", "coordinates": [-10.2826971597721, -34.288248391829136]}}, {"type": "Feature", "properties": {"norad_id": 66592, "name": "STARLINK-36066", "group": "last-30-days", "lat": 8.064323197191856, "lon": 131.9773538300078, "alt_km": 442.3067480965301, "timestamp": "2025-12-24T18:55:54.774291+00:00", "meta": {"OBJECT_NAME": "STARLINK-36066", "OBJECT_ID": "2025-270E", "EPOCH": "2025-12-24T01:45:59.627520", "MEAN_MOTION": 15.4071983, "ECCENTRICITY": 0.00014935, "INCLINATION": 43.0005, "RA_OF_ASC_NODE": 127.3548, "ARG_OF_PERICENTER": 281.5377, "MEAN_ANOMALY": 78.5312, "EPHEMERIS_TYPE": 0, "CLASSIFICATION_TYPE": "U", "NORAD_CAT_ID": 66592, "ELEMENT_SET_NO": 999, "REV_AT_EPOCH": 599, "BSTAR": 0.0014926122, "MEAN_MOTION_DOT": 0.00062601, "MEAN_MOTION_DDOT": 0}, "tle": {"line1": "1 66592U 25270E   25358.07360680  .00062601  00000+0  14926-2 0  9995", "line2": "2 66592  43.0005 127.3548 0001493 281.5377  78.5312 15.40719830  5999"}}, "geometry": {"type": "Point", "coordinates": [131.9773538300078, 8.064323197191856]}}, {"type": "Feature", "properties": {"norad_id": 66593, "name": "STARLINK-36031", "group": "last-30-days", "lat": 42.317481301030085, "lon": -134.68259821515454, "alt_km": 437.5798099023523, "timestamp": "2025-12-24T18:55:54.774302+00:00", "meta": {"OBJECT_NAME": "STARLINK-36031", "OBJECT_ID": "2025-270F", "EPOCH": "2025-12-24T01:23:24.929952", "MEAN_MOTION": 15.4074384, "ECCENTRICITY": 8.634e-05, "INCLINATION": 43.0006, "RA_OF_ASC_NODE": 127.2322, "ARG_OF_PERICENTER": 287.0382, "MEAN_ANOMALY": 73.038, "EPHEMERIS_TYPE": 0, "CLASSIFICATION_TYPE": "U", "NORAD_CAT_ID": 66593, "ELEMENT_SET_NO": 999, "REV_AT_EPOCH": 609, "BSTAR": 0.0010050027, "MEAN_MOTION_DOT": 0.0004197, "MEAN_MOTION_DDOT": 0}, "tle": {"line1": "1 66593U 25270F   25358.05792743  .00041970  00000+0  10050-2 0  9993", "line2": "2 66593  43.0006 127.2322 0000863 287.0382  73.0380 15.40743840  6092"}}, "geometry": {"type": "Point", "coordinates": [-134.68259821515454, 42.317481301030085]}}, {"type": "Feature", "properties": {"norad_id": 66594, "name": "STARLINK-36032", "group": "last-30-days", "lat": -12.615034634448348, "lon": -43.32753578508191, "alt_km": 444.9810944766623, "timestamp": "2025-12-24T18:55:54.774312+00:00", "meta": {"OBJECT_NAME": "STARLINK-36032", "OBJECT_ID": "2025-270G", "EPOCH": "2025-12-23T15:37:29.022240", "MEAN_MOTION": 15.40717156, "ECCENTRICITY": 0.00031713, "INCLINATION": 43.0045, "RA_OF_ASC_NODE": 129.3366, "ARG_OF_PERICENTER": 281.74, "MEAN_ANOMALY": 78.3101, "EPHEMERIS_TYPE": 0, "CLASSIFICATION_TYPE": "U", "NORAD_CAT_ID": 66594, "ELEMENT_SET_NO": 999, "REV_AT_EPOCH": 584, "BSTAR": 0.0010129221, "MEAN_MOTION_DOT": 0.00042272, "MEAN_MOTION_DDOT": 0}, "tle": {"line1": "1 66594U 25270G   25357.65103035  .00042272  00000+0  10129-2 0  9992", "line2": "2 66594  43.0045 129.3366 0003171 281.7400  78.3101 15.40717156  5846"}}, "geometry": {"type": "Point", "coordinates": [-43.32753578508191, -12.615034634448348]}}]}